[
  {
    "name": "KUIPER-00639",
    "noradId": "69786",
    "line1": "1 69786U 26151Z   26189.58336806  .00032438  00000+0  91451-3 0  9998",
    "line2": "2 69786  51.8682 212.4059 0009407 134.9817 353.8063 15.36087842  1300"
  },
  {
    "name": "KUIPER-00641",
    "noradId": "69787",
    "line1": "1 69787U 26151AA  26189.58336806  .00030463  00000+0  87565-3 0  9996",
    "line2": "2 69787  51.8671 212.4226 0011416 147.2890 333.0643 15.35492944  1638"
  },
  {
    "name": "KUIPER-00644",
    "noradId": "69788",
    "line1": "1 69788U 26151AB  26189.58336806  .00030341  00000+0  84657-3 0  9991",
    "line2": "2 69788  51.8732 212.3950 0008670 134.8135 358.6177 15.36451965  1939"
  },
  {
    "name": "KUIPER-00646",
    "noradId": "69789",
    "line1": "1 69789U 26151AC  26189.58336806  .00030190  00000+0  84854-3 0  9993",
    "line2": "2 69789  51.8696 212.4036 0009796 136.0766 353.5934 15.36216688  1306"
  },
  {
    "name": "KUIPER-00647",
    "noradId": "69790",
    "line1": "1 69790U 26151AD  26189.58336806  .00039739  00000+0  11311-2 0  9990",
    "line2": "2 69790  51.8658 212.4236 0010247 142.0827 337.8127 15.35684082  1772"
  },
  {
    "name": "KUIPER-00662",
    "noradId": "69791",
    "line1": "1 69791U 26151AE  26189.58336806  .00030414  00000+0  84598-3 0  9990",
    "line2": "2 69791  51.8719 212.3912 0008646 129.8514   5.7275 15.36547690  1305"
  }
]